OBJECT_NAME,OBJECT_ID,EPOCH,MEAN_MOTION,ECCENTRICITY,INCLINATION,RA_OF_ASC_NODE,ARG_OF_PERICENTER,MEAN_ANOMALY,EPHEMERIS_TYPE,CLASSIFICATION_TYPE,NORAD_CAT_ID,ELEMENT_SET_NO,REV_AT_EPOCH,BSTAR,MEAN_MOTION_DOT,MEAN_MOTION_DDOT
HAWK-5A,2022-057AB,2026-06-26T09:29:26.230272,15.51704681,.00048965,97.6611,336.8399,48.5936,311.5736,0,U,52757,999,22777,.33648409E-3,.19958E-3,0
HAWK-6B,2023-011A,2026-06-26T15:01:10.600032,15.23011988,.00013397,40.4995,297.0174,101.2904,258.8055,0,U,55324,999,18928,.19730295E-3,.4546E-4,0
HAWK-6C,2023-011C,2026-06-26T15:00:15.990912,15.23004987,.00019593,40.4980,293.8589,76.7747,283.3281,0,U,55326,999,18929,.18810468E-3,.4324E-4,0
HAWK-6A,2023-011D,2026-06-26T15:00:19.178208,15.23009944,.00015923,40.4993,295.4841,70.9092,289.1890,0,U,55327,999,18929,.19735349E-3,.4547E-4,0
HAWK-7A,2023-054P,2026-06-26T09:55:01.020864,15.27451057,.00035718,97.2698,64.5160,36.2318,323.9163,0,U,56191,999,17843,.23225089E-3,.6168E-4,0
HAWK-7B,2023-054R,2026-06-26T09:54:54.750816,15.27449541,.0003183,97.2725,62.7833,52.0980,308.0547,0,U,56193,999,17843,.23624444E-3,.6275E-4,0
HAWK-7C,2023-054Y,2026-06-26T11:29:04.777728,15.27449629,.00029958,97.2702,63.6128,42.0981,318.0488,0,U,56200,999,17844,.21415276E-3,.5681E-4,0
