HAWK-5A                 
1 52757U 22057AB  26177.39544248  .00019958  00000+0  33648-3 0  9992
2 52757  97.6611 336.8399 0004896  48.5936 311.5736 15.51704681227770
HAWK-6B                 
1 55324U 23011A   26177.62581713  .00004546  00000+0  19730-3 0  9993
2 55324  40.4995 297.0174 0001339 101.2904 258.8055 15.23011988189284
HAWK-6C                 
1 55326U 23011C   26177.62518508  .00004324  00000+0  18810-3 0  9999
2 55326  40.4980 293.8589 0001959  76.7747 283.3281 15.23004987189299
HAWK-6A                 
1 55327U 23011D   26177.62522197  .00004547  00000+0  19735-3 0  9993
2 55327  40.4993 295.4841 0001592  70.9092 289.1890 15.23009944189293
HAWK-7A                 
1 56191U 23054P   26177.41320626  .00006168  00000+0  23225-3 0  9990
2 56191  97.2698  64.5160 0003571  36.2318 323.9163 15.27451057178433
HAWK-7B                 
1 56193U 23054R   26177.41313369  .00006275  00000+0  23624-3 0  9990
2 56193  97.2725  62.7833 0003183  52.0980 308.0547 15.27449541178438
HAWK-7C                 
1 56200U 23054Y   26177.47852752  .00005681  00000+0  21415-3 0  9995
2 56200  97.2702  63.6128 0002995  42.0981 318.0488 15.27449629178442
